UNKNOWN                 
1 87211U          26013.27104917  .00002813  00000+0  77764-3 0  9999
2 87211  99.0868  20.3438 0053918  65.9287 313.5715 14.46731224712339
UNKNOWN                 
1 87214U          26006.97861442  .00000493  00000+0  47961-3 0  9992
2 87214 100.3305  13.1224 0071985 189.8286 170.1461 13.84125471603736
UNKNOWN                 
1 87237U          26013.44633089  .00000435  00000+0  36092-3 0  9990
2 87237  99.2528  73.8578 0103586 198.2516 177.0822 13.91786964616179
UNKNOWN                 
1 87239U          26013.09233288  .00005292  00000+0  12871-2 0  9994
2 87239  82.8720  56.2271 0017110 300.2424  59.7081 14.52597017632424
UNKNOWN                 
1 87245U          26013.59427289  .00002291  00000+0  49432-3 0  9992
2 87245  65.6421 322.6009 0427911 105.2287  67.2922 14.16071972618712
UNKNOWN                 
1 87271U          26012.78348031  .00004481  00000+0  83552-3 0  9992
2 87271  65.7539 152.8298 0419462  57.0996 306.9721 14.22062924616787
UNKNOWN                 
1 87280U          26011.70927937  .00000357  00000+0  67277-3 0  9995
2 87280  64.6147 161.2504 0128632 254.8217 103.8566 13.48581249537891
UNKNOWN                 
1 87293U          26013.54230348  .00004208  00000+0  83251-3 0  9995
2 87293  65.8970  60.6990 0428365 342.3608  16.2977 14.18371164618508
UNKNOWN                 
1 87300U          26012.17723008  .00001854  00000+0  13021-2 0  9993
2 87300 100.0899   2.6921 0026192 211.1341 148.8268 13.99563842617371
UNKNOWN                 
1 87304U          26011.41012146  .00001688  00000+0  25185-3 0  9997
2 87304  74.0180 262.8600 0018380 226.7719 133.1921 14.75571984650857
UNKNOWN                 
1 87320U          26013.27075992  .00001779  00000+0  11369-2 0  9998
2 87320  66.5953   9.0628 0416812  34.2803 328.4426 13.70154152598069
UNKNOWN                 
1 87334U          26012.98733151  .00015908  00000+0  92114-2 0  9994
2 87334  89.9949 271.6909 0051789 139.1862 221.3219 14.08082276391044
